IRIDIUM 45 [-]          
1 25104U 97082A   23106.53367105  .00024602  00000+0  17078-2 0  9998
2 25104  86.3772  61.0168 0189521 341.9338  17.5212 14.91966452332885
IRIDIUM 24 [-]          
1 25105U 97082B   23106.36410827  .00001022  00000+0  31480-3 0  9995
2 25105  86.3923  55.9125 0011864 163.4366 196.7224 14.40541757329027
IRIDIUM 51 [-]          
1 25262U 98018A   23106.41838094  .00019437  00000+0  11874-2 0  9998
2 25262  86.3922  72.0530 0174990 303.2372  55.2190 14.98195800327128
IRIDIUM 57 [-]          
1 25273U 98019B   23106.55493699  .00000643  00000+0  22016-3 0  9994
2 25273  86.3914 117.1608 0002238  88.3154 271.8299 14.34772695311090
IRIDIUM 63 [-]          
1 25286U 98021B   23106.31352507  .00000890  00000+0  30433-3 0  9993
2 25286  86.4000  54.1565 0002127  81.2212 278.9226 14.35266376310077
IRIDIUM 69 [-]          
1 25319U 98026A   23106.43864609  .00001003  00000+0  31636-3 0  9992
2 25319  86.3971  69.7212 0004325 100.3602 259.8084 14.39368367308972
IRIDIUM 71 [-]          
1 25320U 98026B   23106.39870238  .00000979  00000+0  30653-3 0  9993
2 25320  86.3963  64.6324 0003011 131.3482 228.7976 14.39727201309471
